NORAD_CAT_ID,OBJECT_NAME,OBJECT_TYPE,EPOCH,MEAN_MOTION,ECCENTRICITY,INCLINATION,RA_OF_ASC_NODE,ARG_OF_PERICENTER,MEAN_ANOMALY,BSTAR,MEAN_MOTION_DOT,MEAN_MOTION_DDOT,TLE_LINE0,TLE_LINE1,TLE_LINE2,SEMIMAJOR_AXIS,PERIOD,APOGEE,PERIGEE,DECAYED
56809.0,STARLINK-6040,PAYLOAD,2024-08-21 15:08:41,14.98318831,0.0002314,70.002,329.0213,258.9074,101.1825,0.00010004,1.101e-05,0.0,0 STARLINK-6040,1 56809U 23078AU  24234.63103192  .00001101  00000-0  10004-3 0  9999,2 56809  70.0020 329.0213 0002314 258.9074 101.1825 14.98318831 68046,6950.227,96.108,573.701,570.484,0.0
56809.0,STARLINK-6040,PAYLOAD,2024-08-21 16:44:48,14.98329868,0.0002368,70.002,328.853,268.345,91.7438,-8.2459e-05,-1.077e-05,0.0,0 STARLINK-6040,1 56809U 23078AU  24234.69778743 -.00001077  00000-0 -82459-4 0  9993,2 56809  70.0020 328.8530 0002368 268.3450  91.7438 14.98329868 68054,6950.193,96.107,573.704,570.412,0.0
